FLOCK 4G-2              
1 62661U 25009BE  26068.66207492  .00013752  00000+0  51068-3 0  9995
2 62661  97.4044 151.2221 0003181 329.2677  30.8376 15.27675260121321
STARLINK-33650          
1 63321U 25057Q   26068.25573767  .00028534  00000+0  10419-2 0  9996
2 63321  42.9992  33.0786 0001388 269.6659  90.4034 15.27596519 55675
